NORAD_CAT_ID,OBJECT_NAME,OBJECT_TYPE,EPOCH,MEAN_MOTION,ECCENTRICITY,INCLINATION,RA_OF_ASC_NODE,ARG_OF_PERICENTER,MEAN_ANOMALY,BSTAR,MEAN_MOTION_DOT,MEAN_MOTION_DDOT,TLE_LINE0,TLE_LINE1,TLE_LINE2,SEMIMAJOR_AXIS,PERIOD,APOGEE,PERIGEE,DECAYED
53995.0,STARLINK-5097,PAYLOAD,2023-10-12 11:43:35,15.08845819,0.0002016,53.2163,200.9715,76.8219,283.2998,0.00093723,0.00014662,0.0,0 STARLINK-5097,1 53995U 22125AH  23285.48860300  .00014662  00000-0  93723-3 0  9998,2 53995  53.2163 200.9715 0002016  76.8219 283.2998 15.08845819 56729,6917.863,95.437,541.122,538.333,0.0
53995.0,STARLINK-5097,PAYLOAD,2023-10-12 18:05:07,15.08846478,0.0001983,53.2178,199.7836,75.8131,284.3081,0.00076976,0.00011986,0.0,0 STARLINK-5097,1 53995U 22125AH  23285.75356211  .00011986  00000-0  76976-3 0  9996,2 53995  53.2178 199.7836 0001983  75.8131 284.3081 15.08846478 56848,6917.861,95.437,541.097,538.354,0.0
53995.0,STARLINK-5097,PAYLOAD,2023-10-12 22:51:17,15.08850605,0.0001742,53.2181,198.8917,76.7398,283.3788,0.00064048,9.923e-05,0.0,0 STARLINK-5097,1 53995U 22125AH  23285.95228020  .00009923  00000-0  64048-3 0  9999,2 53995  53.2181 198.8917 0001742  76.7398 283.3788 15.08850605 56794,6917.848,95.437,540.918,538.508,0.0
53995.0,STARLINK-5097,PAYLOAD,2023-10-13 11:34:21,15.08852211,0.0001216,53.2165,196.5136,78.3009,281.812,0.00063779,9.88e-05,0.0,0 STARLINK-5097,1 53995U 22125AH  23286.48219633  .00009880  00000-0  63779-3 0  9990,2 53995  53.2165 196.5136 0001216  78.3009 281.8120 15.08852211 56953,6917.843,95.437,540.549,538.867,0.0
53995.0,STARLINK-5097,PAYLOAD,2023-10-14 03:28:12,15.08880721,0.000154,53.2163,193.5362,100.4418,259.6748,0.001412,0.00022281,0.0,0 STARLINK-5097,1 53995U 22125AH  23287.14458656  .00022281  00000-0  14120-2 0  9999,2 53995  53.2163 193.5362 0001540 100.4418 259.6748 15.08880721 57058,6917.756,95.435,540.686,538.556,0.0
53995.0,STARLINK-5097,PAYLOAD,2023-10-14 11:25:08,15.08844692,0.0002202,53.2168,192.0503,76.7376,283.3861,0.00058675,9.064e-05,0.0,0 STARLINK-5097,1 53995U 22125AH  23287.47579525  .00009064  00000-0  58675-3 0  9992,2 53995  53.2168 192.0503 0002202  76.7376 283.3861 15.08844692 57022,6917.866,95.437,541.254,538.208,0.0
53995.0,STARLINK-5097,PAYLOAD,2023-10-14 17:46:41,15.0885064,0.0003002,53.2156,190.8612,79.6965,280.4365,0.001366,0.00021526,0.0,0 STARLINK-5097,1 53995U 22125AH  23287.74075869  .00021526  00000-0  13660-2 0  9995,2 53995  53.2156 190.8612 0003002  79.6965 280.4365 15.08850640 57141,6917.848,95.437,541.79,537.636,0.0
53995.0,STARLINK-5097,PAYLOAD,2023-10-14 20:57:27,15.08827691,0.0001367,53.2158,190.2664,75.8923,284.2221,0.00062411,9.655e-05,0.0,0 STARLINK-5097,1 53995U 22125AH  23287.87323711  .00009655  00000-0  62411-3 0  9999,2 53995  53.2158 190.2664 0001367  75.8923 284.2221 15.08827691 57084,6917.918,95.438,540.729,538.837,0.0
53995.0,STARLINK-5097,PAYLOAD,2023-10-15 03:19:00,15.08837911,0.0001507,53.216,189.0766,76.0,284.116,0.0021547,0.00034169,0.0,0 STARLINK-5097,1 53995U 22125AH  23288.13820081  .00034169  00000-0  21547-2 0  9993,2 53995  53.2160 189.0766 0001507  76.0000 284.1160 15.08837911 57202,6917.887,95.438,540.794,538.709,0.0
53995.0,STARLINK-5097,PAYLOAD,2023-10-15 17:37:29,15.08845785,0.0001682,53.2164,186.3972,84.4511,275.6673,0.0011768,0.00018493,0.0,0 STARLINK-5097,1 53995U 22125AH  23288.73436365  .00018493  00000-0  11768-2 0  9993,2 53995  53.2164 186.3972 0001682  84.4511 275.6673 15.08845785 57290,6917.863,95.437,540.891,538.564,0.0
53995.0,STARLINK-5097,PAYLOAD,2023-10-15 20:48:15,15.0884848,0.0001636,53.2164,185.8038,95.1903,264.9276,0.0010947,0.00017181,0.0,0 STARLINK-5097,1 53995U 22125AH  23288.86684229  .00017181  00000-0  10947-2 0  9992,2 53995  53.2164 185.8038 0001636  95.1903 264.9276 15.08848480 57239,6917.854,95.437,540.851,538.588,0.0
53995.0,STARLINK-5097,PAYLOAD,2023-10-15 23:59:01,15.08855016,0.0001596,53.216,185.2099,83.7141,276.4033,0.0011372,0.00017864,0.0,0 STARLINK-5097,1 53995U 22125AH  23288.99932140  .00017864  00000-0  11372-2 0  9995,2 53995  53.2160 185.2099 0001596  83.7141 276.4033 15.08855016 57252,6917.834,95.437,540.804,538.595,0.0
53995.0,STARLINK-5097,PAYLOAD,2023-10-16 17:28:15,15.08853043,0.0001565,53.2155,181.9383,81.1106,279.0063,0.00068113,0.00010573,0.0,0 STARLINK-5097,1 53995U 22125AH  23289.72796108  .00010573  00000-0  68113-3 0  9995,2 53995  53.2155 181.9383 0001565  81.1106 279.0063 15.08853043 57445,6917.841,95.437,540.788,538.623,0.0
53995.0,STARLINK-5097,PAYLOAD,2023-10-17 17:19:03,15.0884943,0.0001684,53.2164,177.4816,344.3148,15.7792,0.00098959,0.000155,0.0,0 STARLINK-5097,1 53995U 22125AH  23290.72156576  .00015500  00000-0  98959-3 0  9992,2 53995  53.2164 177.4816 0001684 344.3148  15.7792 15.08849430 57593,6917.852,95.437,540.882,538.552,0.0
53995.0,STARLINK-5097,PAYLOAD,2023-10-18 01:15:58,15.08855593,0.0001612,53.2168,175.9944,84.9234,275.1942,0.0007576,0.00011795,0.0,0 STARLINK-5097,1 53995U 22125AH  23291.05276058  .00011795  00000-0  75760-3 0  9994,2 53995  53.2168 175.9944 0001612  84.9234 275.1942 15.08855593 57569,6917.833,95.437,540.813,538.583,0.0
53995.0,STARLINK-5097,PAYLOAD,2023-10-18 09:12:55,15.08824633,0.0002381,53.2155,174.5046,74.231,285.8945,-0.00017161,-3.017e-05,0.0,0 STARLINK-5097,1 53995U 22125AH  23291.38397395 -.00003017  00000-0 -17161-3 0  9999,2 53995  53.2155 174.5046 0002381  74.2310 285.8945 15.08824633 57690,6917.927,95.439,541.44,538.145,0.0
53995.0,STARLINK-5097,PAYLOAD,2023-10-19 01:06:47,15.08823985,0.0001822,53.2193,171.5318,70.7696,289.3493,1.7592e-05,-8e-08,0.0,0 STARLINK-5097,1 53995U 22125AH  23292.04638008 -.00000008  00000-0  17592-4 0  9997,2 53995  53.2193 171.5318 0001822  70.7696 289.3493 15.08823985 57717,6917.929,95.439,541.055,538.534,0.0
53995.0,STARLINK-5097,PAYLOAD,2023-10-19 18:36:00,15.08866786,0.0001443,53.2135,168.261,100.0085,260.1069,0.0011393,0.00017904,0.0,0 STARLINK-5097,1 53995U 22125AH  23292.77500846  .00017904  00000-0  11393-2 0  9998,2 53995  53.2135 168.2610 0001443 100.0085 260.1069 15.08866786 57902,6917.799,95.436,540.662,538.665,0.0
53995.0,STARLINK-5097,PAYLOAD,2023-10-19 23:22:09,15.08883267,0.0001306,53.2137,167.3689,93.9418,266.1723,0.0010381,0.00016292,0.0,0 STARLINK-5097,1 53995U 22125AH  23292.97372167  .00016292  00000-0  10381-2 0  9998,2 53995  53.2137 167.3689 0001306  93.9418 266.1723 15.08883267 57858,6917.748,95.435,540.517,538.71,0.0
53995.0,STARLINK-5097,PAYLOAD,2023-10-20 21:37:33,15.08841192,0.0001477,53.213,163.2017,81.4935,278.6225,0.00053159,8.183e-05,0.0,0 STARLINK-5097,1 53995U 22125AH  23293.90108503  .00008183  00000-0  53159-3 0  9994,2 53995  53.2130 163.2017 0001477  81.4935 278.6225 15.08841192 57997,6917.877,95.437,540.764,538.72,0.0
53995.0,STARLINK-5097,PAYLOAD,2023-10-21 00:48:19,15.08847331,0.0001619,53.2146,162.6108,82.6108,277.5068,9.4705e-05,1.22e-05,0.0,0 STARLINK-5097,1 53995U 22125AH  23294.03356475  .00001220  00000-0  94705-4 0  9990,2 53995  53.2146 162.6108 0001619  82.6108 277.5068 15.08847331 58097,6917.858,95.437,540.843,538.603,0.0
53995.0,STARLINK-5097,PAYLOAD,2023-10-21 08:45:15,15.08846163,0.0001568,53.2147,161.124,88.7877,271.3295,0.00021573,3.148e-05,0.0,0 STARLINK-5097,1 53995U 22125AH  23294.36476426  .00003148  00000-0  21573-3 0  9998,2 53995  53.2147 161.1240 0001568  88.7877 271.3295 15.08846163 58065,6917.862,95.437,540.811,538.642,0.0
53995.0,STARLINK-5097,PAYLOAD,2023-10-21 21:28:20,15.08853831,0.0001507,53.2149,158.7444,92.0245,268.092,0.00049887,7.663e-05,0.0,0 STARLINK-5097,1 53995U 22125AH  23294.89468014  .00007663  00000-0  49887-3 0  9994,2 53995  53.2149 158.7444 0001507  92.0245 268.0920 15.08853831 58142,6917.838,95.437,540.746,538.661,0.0
53995.0,STARLINK-5097,PAYLOAD,2023-10-22 08:36:02,15.08847886,0.0001247,53.2149,156.662,88.9235,271.19,0.00020432,2.966e-05,0.0,0 STARLINK-5097,1 53995U 22125AH  23295.35835924  .00002966  00000-0  20432-3 0  9990,2 53995  53.2149 156.6620 0001247  88.9235 271.1900 15.08847886 58291,6917.856,95.437,540.584,538.859,0.0
53995.0,STARLINK-5097,PAYLOAD,2023-10-22 21:19:08,15.0882798,0.0001769,53.2157,154.284,84.2166,275.9028,-0.00014267,-2.557e-05,0.0,0 STARLINK-5097,1 53995U 22125AH  23295.88828960 -.00002557  00000-0 -14267-3 0  9997,2 53995  53.2157 154.2840 0001769  84.2166 275.9028 15.08827980 58374,6917.917,95.438,541.006,538.558,0.0
53995.0,STARLINK-5097,PAYLOAD,2023-10-23 21:09:55,15.08842785,0.0001867,53.2162,149.8241,81.84,278.2803,0.00074248,0.00011549,0.0,0 STARLINK-5097,1 53995U 22125AH  23296.88189567  .00011549  00000-0  74248-3 0  9995,2 53995  53.2162 149.8241 0001867  81.8400 278.2803 15.08842785 58443,6917.872,95.437,541.028,538.445,0.0
53995.0,STARLINK-5097,PAYLOAD,2023-10-24 00:20:42,15.08847539,0.0001873,53.2162,149.2294,80.8689,279.2515,0.00079187,0.0001234,0.0,0 STARLINK-5097,1 53995U 22125AH  23297.01437511  .00012340  00000-0  79187-3 0  9993,2 53995  53.2162 149.2294 0001873  80.8689 279.2515 15.08847539 58544,6917.857,95.437,541.018,538.427,0.0
53995.0,STARLINK-5097,PAYLOAD,2023-10-24 14:39:09,15.08853658,0.0001884,53.2162,146.5526,82.3487,277.7719,0.00052845,8.135e-05,0.0,0 STARLINK-5097,1 53995U 22125AH  23297.61053131  .00008135  00000-0  52845-3 0  9990,2 53995  53.2162 146.5526 0001884  82.3487 277.7719 15.08853658 58556,6917.839,95.437,541.007,538.4,0.0
53995.0,STARLINK-5097,PAYLOAD,2023-10-25 12:54:33,15.08845658,0.0001838,53.2151,142.388,76.4824,283.6373,0.00013663,1.887e-05,0.0,0 STARLINK-5097,1 53995U 22125AH  23298.53788814  .00001887  00000-0  13663-3 0  9997,2 53995  53.2151 142.3880 0001838  76.4824 283.6373 15.08845658 58776,6917.863,95.437,541.0,538.457,0.0
53995.0,STARLINK-5097,PAYLOAD,2023-10-26 19:06:52,15.08847249,0.0001758,53.2152,136.7409,86.6889,273.4305,0.00018972,2.733e-05,0.0,0 STARLINK-5097,1 53995U 22125AH  23299.79644487  .00002733  00000-0  18972-3 0  9992,2 53995  53.2152 136.7409 0001758  86.6889 273.4305 15.08847249 58967,6917.858,95.437,540.939,538.507,0.0
